{
    "links": {
        "self": "http://www.neowsapp.com/rest/v1/neo/3151646?api_key=iIulBulltgU6a56xZRHN4H3l9WmuAYTsLGpBGhQ2"
    },
    "id": "3151646",
    "neo_reference_id": "3151646",
    "name": "(2003 FB5)",
    "designation": "2003 FB5",
    "nasa_jpl_url": "http://ssd.jpl.nasa.gov/sbdb.cgi?sstr=3151646",
    "absolute_magnitude_h": 23.5,
    "estimated_diameter": {
        "kilometers": {
            "estimated_diameter_min": 0.0530340723,
            "estimated_diameter_max": 0.1185877909
        },
        "meters": {
            "estimated_diameter_min": 53.0340723319,
            "estimated_diameter_max": 118.5877908577
        },
        "miles": {
            "estimated_diameter_min": 0.0329538346,
            "estimated_diameter_max": 0.0736870142
        },
        "feet": {
            "estimated_diameter_min": 173.9963058693,
            "estimated_diameter_max": 389.0675677576
        }
    },
    "is_potentially_hazardous_asteroid": false,
    "close_approach_data": [
        {
            "close_approach_date": "1907-06-06",
            "close_approach_date_full": "1907-Jun-06 10:19",
            "epoch_date_close_approach": -1974634860000,
            "relative_velocity": {
                "kilometers_per_second": "11.0006723126",
                "kilometers_per_hour": "39602.4203251843",
                "miles_per_hour": "24607.4038959458"
            },
            "miss_distance": {
                "astronomical": "1.9564018362",
                "lunar": "761.0403142818",
                "kilometers": "292673547.559608894",
                "miles": "181858909.5438509772"
            },
            "orbiting_body": "Juptr"
        },
        {
            "close_approach_date": "2002-01-28",
            "close_approach_date_full": "2002-Jan-28 03:55",
            "epoch_date_close_approach": 1012190100000,
            "relative_velocity": {
                "kilometers_per_second": "11.1216421725",
                "kilometers_per_hour": "40037.9118210349",
                "miles_per_hour": "24878.0013756869"
            },
            "miss_distance": {
                "astronomical": "1.7527196668",
                "lunar": "681.8079503852",
                "kilometers": "262203128.860389716",
                "miles": "162925469.3194454408"
            },
            "orbiting_body": "Juptr"
        },
        {
            "close_approach_date": "2003-04-03",
            "close_approach_date_full": "2003-Apr-03 01:47",
            "epoch_date_close_approach": 1049334420000,
            "relative_velocity": {
                "kilometers_per_second": "24.7822185176",
                "kilometers_per_hour": "89215.9866634741",
                "miles_per_hour": "55435.3446020903"
            },
            "miss_distance": {
                "astronomical": "0.023919093",
                "lunar": "9.304527177",
                "kilometers": "3578245.36513191",
                "miles": "2223418.568603958"
            },
            "orbiting_body": "Earth"
        },
        {
            "close_approach_date": "2112-03-30",
            "close_approach_date_full": "2112-Mar-30 08:45",
            "epoch_date_close_approach": 4488770700000,
            "relative_velocity": {
                "kilometers_per_second": "25.5941996464",
                "kilometers_per_hour": "92139.1187270227",
                "miles_per_hour": "57251.6651890214"
            },
            "miss_distance": {
                "astronomical": "0.0367031105",
                "lunar": "14.2775099845",
                "kilometers": "5490707.153174635",
                "miles": "3411767.219234563"
            },
            "orbiting_body": "Earth"
        }
    ],
    "orbital_data": {
        "orbit_id": "10",
        "orbit_determination_date": "2017-04-06 09:14:14",
        "first_observation_date": "2003-03-26",
        "last_observation_date": "2003-04-02",
        "data_arc_in_days": 7,
        "observations_used": 90,
        "orbit_uncertainty": "8",
        "minimum_orbit_intersection": ".0237162",
        "jupiter_tisserand_invariant": "2.918",
        "epoch_osculation": "2452729.5",
        "eccentricity": ".788717947330782",
        "semi_major_axis": "2.517484658897965",
        "inclination": "5.351603597751059",
        "ascending_node_longitude": "358.4446588068253",
        "orbital_period": "1458.977774097951",
        "perihelion_distance": ".5318993262952281",
        "perihelion_argument": "288.3178853413605",
        "aphelion_distance": "4.503069991500702",
        "perihelion_time": "2452777.350446801089",
        "mean_anomaly": "348.192992961087",
        "mean_motion": ".2467481043174759",
        "equinox": "J2000",
        "orbit_class": {
            "orbit_class_type": "APO",
            "orbit_class_description": "Near-Earth asteroid orbits which cross the Earth’s orbit similar to that of 1862 Apollo",
            "orbit_class_range": "a (semi-major axis) > 1.0 AU; q (perihelion) < 1.017 AU"
        }
    },
    "is_sentry_object": false
}